ORBCOMM FM103           
1 40091U 14040F   25362.48438059  .00000720  00000+0  18958-3 0  9994
2 40091  47.0032 179.9633 0001222 100.1440 259.9584 14.58557752592464
ORBCOMM FM114           
1 41179U 15081A   25362.63793227  .00000953  00000+0  23908-3 0  9995
2 41179  47.0049  88.1908 0002054 163.4770 196.6183 14.58581885532851
ORBCOMM FM119           
1 41180U 15081B   25363.04555684  .00001187  00000+0  28916-3 0  9990
2 41180  47.0015 355.6235 0001738 250.5451 109.5247 14.58533041534164
ORBCOMM FM105           
1 41181U 15081C   25363.09855489  .00000457  00000+0  17314-3 0  9991
2 41181  47.0020  19.3752 0000956 140.5941 219.5009 14.45419847528942
ORBCOMM FM110           
1 41182U 15081D   25362.97008567  .00001455  00000+0  34567-3 0  9993
2 41182  47.0023  86.1160 0002212 345.8951  14.1873 14.58616680532771
ORBCOMM FM118           
1 41183U 15081E   25363.27863687  .00001312  00000+0  31539-3 0  9998
2 41183  47.0045  84.9592 0003146 310.9000  49.1613 14.58607658532928
ORBCOMM FM112           
1 41184U 15081F   25363.00728690  .00001264  00000+0  30509-3 0  9996
2 41184  47.0000 354.7706 0001173 187.0938 172.9931 14.58611131534107
ORBCOMM FM113           
1 41185U 15081G   25363.05308153  .00001218  00000+0  29527-3 0  9997
2 41185  47.0018 354.9126 0001170 207.0169 153.0656 14.58607587534093
